{
  "norad_id": 51816,
  "name": "STARLINK-3603",
  "history": [
    {
      "epoch": "2026-03-28T22:00:01.999584Z",
      "apogee_km": 292.0554151453216,
      "perigee_km": 290.99453871127116,
      "latitude_deg": 2.959367783027203,
      "longitude_deg": 59.01475354501195,
      "height_km": 291.65809312931145,
      "semi_major_axis_km": 6669.661976928296,
      "eccentricity": 7.953e-05,
      "inclination_deg": 53.2125,
      "raan_deg": 213.1505,
      "arg_perigee_deg": 33.3638,
      "mean_anomaly_deg": 330.4163,
      "mean_motion_rev_day": 15.93848455
    },
    {
      "epoch": "2026-03-29T04:00:01.999584Z",
      "apogee_km": 291.36209636571675,
      "perigee_km": 290.2777239721245,
      "latitude_deg": -0.7227044259562518,
      "longitude_deg": -35.24948344849458,
      "height_km": 291.4388493823853,
      "semi_major_axis_km": 6668.95691016892,
      "eccentricity": 8.13e-05,
      "inclination_deg": 53.2129,
      "raan_deg": 211.8729,
      "arg_perigee_deg": 40.4063,
      "mean_anomaly_deg": 318.806,
      "mean_motion_rev_day": 15.94101223
    },
    {
      "epoch": "2026-03-30T04:00:01.999584Z",
      "apogee_km": 288.75133053067657,
      "perigee_km": 286.68758137191435,
      "latitude_deg": -13.390582404590315,
      "longitude_deg": -51.00054478716774,
      "height_km": 290.5424363973792,
      "semi_major_axis_km": 6665.856455951295,
      "eccentricity": 0.0001548,
      "inclination_deg": 53.2128,
      "raan_deg": 206.7652,
      "arg_perigee_deg": 23.1909,
      "mean_anomaly_deg": 320.2135,
      "mean_motion_rev_day": 15.95213536
    },
    {
      "epoch": "2026-03-30T06:00:02.000160Z",
      "apogee_km": 288.34947509010635,
      "perigee_km": 286.4560618634732,
      "latitude_deg": 51.651600562185116,
      "longitude_deg": 38.66612882910966,
      "height_km": 293.1595162025992,
      "semi_major_axis_km": 6665.5397684767895,
      "eccentricity": 0.00014203,
      "inclination_deg": 53.213,
      "raan_deg": 206.3388,
      "arg_perigee_deg": 38.3445,
      "mean_anomaly_deg": 63.9096,
      "mean_motion_rev_day": 15.95327223
    },
    {
      "epoch": "2026-03-30T14:00:03.000384Z",
      "apogee_km": 287.24299565529327,
      "perigee_km": 285.2364851063003,
      "latitude_deg": -29.801687054546527,
      "longitude_deg": 11.854340899466195,
      "height_km": 296.3091068249658,
      "semi_major_axis_km": 6664.376740380797,
      "eccentricity": 0.00015054,
      "inclination_deg": 53.2134,
      "raan_deg": 204.6363,
      "arg_perigee_deg": 30.9395,
      "mean_anomaly_deg": 187.1286,
      "mean_motion_rev_day": 15.95744852
    },
    {
      "epoch": "2026-03-30T22:00:00.999936Z",
      "apogee_km": 286.40996180882394,
      "perigee_km": 284.32721650187796,
      "latitude_deg": -20.66206436099703,
      "longitude_deg": 28.341883845855246,
      "height_km": 290.57471585151006,
      "semi_major_axis_km": 6663.505589155351,
      "eccentricity": 0.00015628,
      "inclination_deg": 53.2135,
      "raan_deg": 202.9305,
      "arg_perigee_deg": 29.7963,
      "mean_anomaly_deg": 304.3235,
      "mean_motion_rev_day": 15.96057791
    },
    {
      "epoch": "2026-03-31T20:00:01.999008Z",
      "apogee_km": 283.7409089669436,
      "perigee_km": 280.9994442130592,
      "latitude_deg": -20.763868674929107,
      "longitude_deg": -94.60423478743486,
      "height_km": 289.55319547224184,
      "semi_major_axis_km": 6660.507176590001,
      "eccentricity": 0.0002058,
      "inclination_deg": 53.213,
      "raan_deg": 198.2358,
      "arg_perigee_deg": 17.6611,
      "mean_anomaly_deg": 188.3694,
      "mean_motion_rev_day": 15.97135677
    },
    {
      "epoch": "2026-04-01T20:00:01.999008Z",
      "apogee_km": 280.5643958753899,
      "perigee_km": 277.8575181960596,
      "latitude_deg": -16.932584759661953,
      "longitude_deg": -104.01082475563729,
      "height_km": 285.17349913728737,
      "semi_major_axis_km": 6657.347957035725,
      "eccentricity": 0.0002033,
      "inclination_deg": 53.2126,
      "raan_deg": 193.1054,
      "arg_perigee_deg": 13.4259,
      "mean_anomaly_deg": 187.6782,
      "mean_motion_rev_day": 15.98272684
    }
  ]
}